NORAD_CAT_ID,OBJECT_NAME,OBJECT_TYPE,EPOCH,MEAN_MOTION,ECCENTRICITY,INCLINATION,RA_OF_ASC_NODE,ARG_OF_PERICENTER,MEAN_ANOMALY,BSTAR,MEAN_MOTION_DOT,MEAN_MOTION_DDOT,TLE_LINE0,TLE_LINE1,TLE_LINE2,SEMIMAJOR_AXIS,PERIOD,APOGEE,PERIGEE,DECAYED
52133.0,STARLINK-3707,PAYLOAD,2024-06-16 20:43:31,15.08844571,0.0001565,53.2191,21.0085,101.1732,258.9436,2.1339e-05,5.2e-07,0.0,0 STARLINK-3707,1 52133U 22029AX  24168.86356174  .00000052  00000-0  21339-4 0  9999,2 52133  53.2191  21.0085 0001565 101.1732 258.9436 15.08844571125700,6917.866,95.437,540.814,538.649,0.0
52133.0,STARLINK-3707,PAYLOAD,2024-06-17 20:34:19,15.08836416,0.0001463,53.2186,16.5472,97.9086,262.2073,-2.196e-05,-6.37e-06,0.0,0 STARLINK-3707,1 52133U 22029AX  24169.85716871 -.00000637  00000-0 -21960-4 0  9994,2 52133  53.2186  16.5472 0001463  97.9086 262.2073 15.08836416125854,6917.891,95.438,540.768,538.744,0.0
52133.0,STARLINK-3707,PAYLOAD,2024-06-18 18:49:43,15.08837192,0.0001345,53.2182,12.3841,100.695,259.4194,1.2154e-05,-9.4e-07,0.0,0 STARLINK-3707,1 52133U 22029AX  24170.78452852 -.00000094  00000-0  12154-4 0  9995,2 52133  53.2182  12.3841 0001345 100.6950 259.4194 15.08837192125994,6917.889,95.438,540.684,538.824,0.0
52133.0,STARLINK-3707,PAYLOAD,2024-06-19 12:18:58,15.08831829,0.0001364,53.2191,9.1203,88.3127,271.8021,6.4366e-05,7.36e-06,0.0,0 STARLINK-3707,1 52133U 22029AX  24171.51317310  .00000736  00000-0  64366-4 0  9990,2 52133  53.2191   9.1203 0001364  88.3127 271.8021 15.08831829126101,6917.905,95.438,540.714,538.827,0.0
52133.0,STARLINK-3707,PAYLOAD,2024-06-19 18:40:30,15.08834959,0.0001332,53.219,7.9313,88.4611,271.6534,3.9246e-05,3.37e-06,0.0,0 STARLINK-3707,1 52133U 22029AX  24171.77813314  .00000337  00000-0  39246-4 0  9999,2 52133  53.2190   7.9313 0001332  88.4611 271.6534 15.08834959126140,6917.896,95.438,540.682,538.839,0.0
52133.0,STARLINK-3707,PAYLOAD,2024-06-20 05:48:12,15.0883855,0.0001189,53.218,5.8454,79.2983,280.8143,6.8006e-05,7.95e-06,0.0,0 STARLINK-3707,1 52133U 22029AX  24172.24180998  .00000795  00000-0  68006-4 0  9991,2 52133  53.2180   5.8454 0001189  79.2983 280.8143 15.08838550126219,6917.885,95.438,540.572,538.927,0.0
52133.0,STARLINK-3707,PAYLOAD,2024-06-20 20:06:41,15.08836815,0.000148,53.2199,3.1698,82.6964,277.4196,2.0181e-05,3.3e-07,0.0,0 STARLINK-3707,1 52133U 22029AX  24172.83797507  .00000033  00000-0  20181-4 0  9993,2 52133  53.2199   3.1698 0001480  82.6964 277.4196 15.08836815126303,6917.89,95.438,540.779,538.731,0.0
52133.0,STARLINK-3707,PAYLOAD,2024-06-20 23:17:27,15.08838297,0.0001518,53.2201,2.5748,83.3144,276.8021,3.0247e-05,1.93e-06,0.0,0 STARLINK-3707,1 52133U 22029AX  24172.97045399  .00000193  00000-0  30247-4 0  9994,2 52133  53.2201   2.5748 0001518  83.3144 276.8021 15.08838297126324,6917.886,95.438,540.801,538.7,0.0
52133.0,STARLINK-3707,PAYLOAD,2024-06-21 12:00:32,15.0882277,0.0001079,53.2193,0.1955,83.9606,276.1509,0.00013544,1.867e-05,0.0,0 STARLINK-3707,1 52133U 22029AX  24173.50038096  .00001867  00000-0  13544-3 0  9999,2 52133  53.2193   0.1955 0001079  83.9606 276.1509 15.08822770126401,6917.933,95.439,540.544,539.052,0.0
52133.0,STARLINK-3707,PAYLOAD,2024-06-21 19:57:28,15.08840216,0.000132,53.2187,358.7121,88.7178,271.3966,4.1826e-05,3.78e-06,0.0,0 STARLINK-3707,1 52133U 22029AX  24173.83157413  .00000378  00000-0  41826-4 0  9991,2 52133  53.2187 358.7121 0001320  88.7178 271.3966 15.08840216126451,6917.88,95.438,540.658,538.832,0.0
52133.0,STARLINK-3707,PAYLOAD,2024-06-22 19:48:15,15.08839656,0.0001438,53.2184,354.2523,62.8464,297.2675,5.6229e-05,6.07e-06,0.0,0 STARLINK-3707,1 52133U 22029AX  24174.82517624  .00000607  00000-0  56229-4 0  9993,2 52133  53.2184 354.2523 0001438  62.8464 297.2675 15.08839656126603,6917.881,95.438,540.741,538.752,0.0
52133.0,STARLINK-3707,PAYLOAD,2024-06-23 11:42:06,15.08839367,0.0001498,53.218,351.2788,71.4576,288.6579,8.4494e-05,1.057e-05,0.0,0 STARLINK-3707,1 52133U 22029AX  24175.48757498  .00001057  00000-0  84494-4 0  9996,2 52133  53.2180 351.2788 0001498  71.4576 288.6579 15.08839367126702,6917.882,95.438,540.784,538.711,0.0
52133.0,STARLINK-3707,PAYLOAD,2024-06-23 18:03:38,15.08844037,0.0001531,53.2182,350.0892,69.7982,290.3174,6.8983e-05,8.1e-06,0.0,0 STARLINK-3707,1 52133U 22029AX  24175.75253256  .00000810  00000-0  68983-4 0  9990,2 52133  53.2182 350.0892 0001531  69.7982 290.3174 15.08844037126741,6917.868,95.437,540.792,538.674,0.0
52133.0,STARLINK-3707,PAYLOAD,2024-06-24 14:43:39,15.08843227,0.000141,53.2175,346.2246,70.3832,289.7313,2.282e-05,7.5e-07,0.0,0 STARLINK-3707,1 52133U 22029AX  24176.61365295  .00000075  00000-0  22820-4 0  9996,2 52133  53.2175 346.2246 0001410  70.3832 289.7313 15.08843227126872,6917.871,95.437,540.711,538.76,0.0
52133.0,STARLINK-3707,PAYLOAD,2024-06-24 17:54:25,15.08844059,0.0001352,53.2179,345.6298,74.2481,285.866,2.7323e-05,1.47e-06,0.0,0 STARLINK-3707,1 52133U 22029AX  24176.74613169  .00000147  00000-0  27323-4 0  9999,2 52133  53.2179 345.6298 0001352  74.2481 285.8660 15.08844059126892,6917.868,95.437,540.668,538.798,0.0
52133.0,STARLINK-3707,PAYLOAD,2024-06-25 14:34:26,15.08839105,0.0001434,53.2189,341.7635,92.937,267.1786,-1.6838e-05,-5.56e-06,0.0,0 STARLINK-3707,1 52133U 22029AX  24177.60725489 -.00000556  00000-0 -16838-4 0  9999,2 52133  53.2189 341.7635 0001434  92.9370 267.1786 15.08839105127024,6917.883,95.438,540.74,538.756,0.0
52133.0,STARLINK-3707,PAYLOAD,2024-06-25 17:45:13,15.08839265,0.0001453,53.219,341.1685,98.2984,261.8173,-1.6104e-05,-5.44e-06,0.0,0 STARLINK-3707,1 52133U 22029AX  24177.73973442 -.00000544  00000-0 -16104-4 0  9990,2 52133  53.2190 341.1685 0001453  98.2984 261.8173 15.08839265127046,6917.883,95.438,540.753,538.742,0.0
52133.0,STARLINK-3707,PAYLOAD,2024-06-27 17:26:47,15.08833351,0.0001292,53.2179,332.2463,94.4374,265.6766,1.6202e-05,-3e-07,0.0,0 STARLINK-3707,1 52133U 22029AX  24179.72694248 -.00000030  00000-0  16202-4 0  9993,2 52133  53.2179 332.2463 0001292  94.4374 265.6766 15.08833351127343,6917.901,95.438,540.66,538.872,0.0
52133.0,STARLINK-3707,PAYLOAD,2024-06-28 14:06:48,15.08837927,0.0001198,53.2163,328.3776,71.8361,288.2761,5.2082e-05,5.41e-06,0.0,0 STARLINK-3707,1 52133U 22029AX  24180.58806275  .00000541  00000-0  52082-4 0  9996,2 52133  53.2163 328.3776 0001198  71.8361 288.2761 15.08837927127472,6917.887,95.438,540.58,538.923,0.0
52133.0,STARLINK-3707,PAYLOAD,2024-06-28 17:17:33,15.08856639,0.0001078,53.2162,327.7826,87.3334,272.7782,0.00020471,2.973e-05,0.0,0 STARLINK-3707,1 52133U 22029AX  24180.72052571  .00002973  00000-0  20471-3 0  9991,2 52133  53.2162 327.7826 0001078  87.3334 272.7782 15.08856639127493,6917.83,95.437,540.44,538.949,0.0
52133.0,STARLINK-3707,PAYLOAD,2024-06-29 02:49:53,15.0883975,0.0001262,53.2164,325.9988,80.9871,279.1264,5.6089e-05,6.05e-06,0.0,0 STARLINK-3707,1 52133U 22029AX  24181.11798046  .00000605  00000-0  56089-4 0  9994,2 52133  53.2164 325.9988 0001262  80.9871 279.1264 15.08839750127552,6917.881,95.438,540.619,538.873,0.0
52133.0,STARLINK-3707,PAYLOAD,2024-06-29 13:57:36,15.08854582,0.0001641,53.2163,323.9192,90.7179,269.4001,-0.00026817,-4.555e-05,0.0,0 STARLINK-3707,1 52133U 22029AX  24181.58166707 -.00004555  00000-0 -26817-3 0  9993,2 52133  53.2163 323.9192 0001641  90.7179 269.4001 15.08854582127626,6917.836,95.437,540.836,538.566,0.0
52133.0,STARLINK-3707,PAYLOAD,2024-06-29 15:32:59,15.08830092,0.0001339,53.2176,323.6225,88.8183,271.2963,-5.1165e-06,-3.69e-06,0.0,0 STARLINK-3707,1 52133U 22029AX  24181.64791124 -.00000369  00000-0 -51165-5 0  9992,2 52133  53.2176 323.6225 0001339  88.8183 271.2963 15.08830092127630,6917.911,95.438,540.702,538.849,0.0
52133.0,STARLINK-3707,PAYLOAD,2024-06-30 09:02:13,15.08841102,0.000133,53.2187,320.3524,88.8669,271.2476,6.1064e-05,6.84e-06,0.0,0 STARLINK-3707,1 52133U 22029AX  24182.37654365  .00000684  00000-0  61064-4 0  9994,2 52133  53.2187 320.3524 0001330  88.8669 271.2476 15.08841102127743,6917.877,95.437,540.662,538.822,0.0
52133.0,STARLINK-3707,PAYLOAD,2024-06-30 15:23:45,15.08845576,0.0001048,53.2161,319.1629,92.4848,267.6265,0.00010059,1.314e-05,0.0,0 STARLINK-3707,1 52133U 22029AX  24182.64149820  .00001314  00000-0  10059-3 0  9997,2 52133  53.2161 319.1629 0001048  92.4848 267.6265 15.08845576127781,6917.863,95.437,540.453,539.003,0.0
52133.0,STARLINK-3707,PAYLOAD,2024-07-01 08:53:00,15.08828418,0.0001101,53.2158,315.8867,112.7659,247.3449,0.0002081,3.025e-05,0.0,0 STARLINK-3707,1 52133U 22029AX  24183.37014415  .00003025  00000-0  20810-3 0  9996,2 52133  53.2158 315.8867 0001101 112.7659 247.3449 15.08828418127897,6917.916,95.438,540.542,539.019,0.0
52133.0,STARLINK-3707,PAYLOAD,2024-07-01 15:14:33,15.0883571,0.0001367,53.2171,314.7019,89.1541,270.9608,0.00011364,1.521e-05,0.0,0 STARLINK-3707,1 52133U 22029AX  24183.63510492  .00001521  00000-0  11364-3 0  9994,2 52133  53.2171 314.7019 0001367  89.1541 270.9608 15.08835710127937,6917.894,95.438,540.704,538.813,0.0
52133.0,STARLINK-3707,PAYLOAD,2024-07-02 02:22:14,15.08842488,0.0001052,53.2157,312.6207,86.9523,273.1589,5.9108e-05,6.53e-06,0.0,0 STARLINK-3707,1 52133U 22029AX  24184.09878070  .00000653  00000-0  59108-4 0  9998,2 52133  53.2157 312.6207 0001052  86.9523 273.1589 15.08842488128005,6917.873,95.437,540.466,539.01,0.0
52133.0,STARLINK-3707,PAYLOAD,2024-07-02 15:05:19,15.08839623,0.0001042,53.2162,310.2416,96.2773,263.8338,2.2911e-05,7.7e-07,0.0,0 STARLINK-3707,1 52133U 22029AX  24184.62870360  .00000077  00000-0  22911-4 0  9993,2 52133  53.2162 310.2416 0001042  96.2773 263.8338 15.08839623128080,6917.882,95.438,540.467,539.026,0.0
52133.0,STARLINK-3707,PAYLOAD,2024-07-02 18:16:05,15.08848326,0.0001255,53.2172,309.645,99.407,260.7064,-6.9595e-06,-3.99e-06,0.0,0 STARLINK-3707,1 52133U 22029AX  24184.76117866 -.00000399  00000-0 -69595-5 0  9992,2 52133  53.2172 309.6450 0001255  99.4070 260.7064 15.08848326128107,6917.855,95.437,540.588,538.852,0.0
